{
  "links" : {
    "next" : "https://api.nasa.gov/neo/rest/v1/feed?start_date=2003-08-16&end_date=2003-08-16&detailed=true&api_key=t0TVs3DtDT2H8Oy2Zy8m2eVrNsAVKAexjcZXUckd",
    "prev" : "https://api.nasa.gov/neo/rest/v1/feed?start_date=2003-08-14&end_date=2003-08-14&detailed=true&api_key=t0TVs3DtDT2H8Oy2Zy8m2eVrNsAVKAexjcZXUckd",
    "self" : "https://api.nasa.gov/neo/rest/v1/feed?start_date=2003-08-15&end_date=2003-08-15&detailed=true&api_key=t0TVs3DtDT2H8Oy2Zy8m2eVrNsAVKAexjcZXUckd"
  },
  "element_count" : 5,
  "near_earth_objects" : {
    "2003-08-15" : [ {
      "links" : {
        "self" : "https://api.nasa.gov/neo/rest/v1/neo/3532365?api_key=t0TVs3DtDT2H8Oy2Zy8m2eVrNsAVKAexjcZXUckd"
      },
      "neo_reference_id" : "3532365",
      "name" : "(2010 MH1)",
      "nasa_jpl_url" : "http://ssd.jpl.nasa.gov/sbdb.cgi?sstr=3532365",
      "absolute_magnitude_h" : 21.3,
      "estimated_diameter" : {
        "kilometers" : {
          "estimated_diameter_min" : 0.1460679643,
          "estimated_diameter_max" : 0.3266178974
        },
        "meters" : {
          "estimated_diameter_min" : 146.0679642714,
          "estimated_diameter_max" : 326.6178974458
        },
        "miles" : {
          "estimated_diameter_min" : 0.090762397,
          "estimated_diameter_max" : 0.2029508896
        },
        "feet" : {
          "estimated_diameter_min" : 479.2256199,
          "estimated_diameter_max" : 1071.581062656
        }
      },
      "is_potentially_hazardous_asteroid" : false,
      "close_approach_data" : [ {
        "close_approach_date" : "2003-08-15",
        "epoch_date_close_approach" : 1060930800000,
        "relative_velocity" : {
          "kilometers_per_second" : "10.6279027803",
          "kilometers_per_hour" : "38260.4500089997",
          "miles_per_hour" : "23773.5557292032"
        },
        "miss_distance" : {
          "astronomical" : "0.488293801",
          "lunar" : "189.9462890625",
          "kilometers" : "73047712",
          "miles" : "45389744"
        },
        "orbiting_body" : "Earth"
      } ],
      "orbital_data" : {
        "orbit_id" : "21",
        "orbit_determination_date" : "2017-04-06 08:57:13",
        "orbit_uncertainty" : "1",
        "minimum_orbit_intersection" : ".169228",
        "jupiter_tisserand_invariant" : "5.482",
        "epoch_osculation" : "2458000.5",
        "eccentricity" : ".3244904951452751",
        "semi_major_axis" : "1.125426183297995",
        "inclination" : "12.64895595064658",
        "ascending_node_longitude" : "124.1377717024277",
        "orbital_period" : "436.0878122512054",
        "perihelion_distance" : ".7602360838301715",
        "perihelion_argument" : "22.51255834268758",
        "aphelion_distance" : "1.490616282765818",
        "perihelion_time" : "2457887.687638755561",
        "mean_anomaly" : "93.12906462197461",
        "mean_motion" : ".8255218097969326",
        "equinox" : "J2000"
      }
    }, {
      "links" : {
        "self" : "https://api.nasa.gov/neo/rest/v1/neo/3150768?api_key=t0TVs3DtDT2H8Oy2Zy8m2eVrNsAVKAexjcZXUckd"
      },
      "neo_reference_id" : "3150768",
      "name" : "(2003 EM1)",
      "nasa_jpl_url" : "http://ssd.jpl.nasa.gov/sbdb.cgi?sstr=3150768",
      "absolute_magnitude_h" : 24.5,
      "estimated_diameter" : {
        "kilometers" : {
          "estimated_diameter_min" : 0.0334622374,
          "estimated_diameter_max" : 0.0748238376
        },
        "meters" : {
          "estimated_diameter_min" : 33.4622374455,
          "estimated_diameter_max" : 74.8238376074
        },
        "miles" : {
          "estimated_diameter_min" : 0.0207924639,
          "estimated_diameter_max" : 0.0464933628
        },
        "feet" : {
          "estimated_diameter_min" : 109.7842471007,
          "estimated_diameter_max" : 245.4850393757
        }
      },
      "is_potentially_hazardous_asteroid" : false,
      "close_approach_data" : [ {
        "close_approach_date" : "2003-08-15",
        "epoch_date_close_approach" : 1060930800000,
        "relative_velocity" : {
          "kilometers_per_second" : "9.1590682091",
          "kilometers_per_hour" : "32972.6455528219",
          "miles_per_hour" : "20487.9196769742"
        },
        "miss_distance" : {
          "astronomical" : "0.1756610504",
          "lunar" : "68.3321533203",
          "kilometers" : "26278520",
          "miles" : "16328716"
        },
        "orbiting_body" : "Earth"
      } ],
      "orbital_data" : {
        "orbit_id" : "14",
        "orbit_determination_date" : "2017-04-06 09:14:18",
        "orbit_uncertainty" : "5",
        "minimum_orbit_intersection" : ".0119604",
        "jupiter_tisserand_invariant" : "6.260",
        "epoch_osculation" : "2458000.5",
        "eccentricity" : ".05179046430244431",
        "semi_major_axis" : ".9577259428219536",
        "inclination" : "15.2670628659249",
        "ascending_node_longitude" : "346.0135121767952",
        "orbital_period" : "342.3420953155494",
        "perihelion_distance" : ".9081248715687084",
        "perihelion_argument" : "23.81002917084772",
        "aphelion_distance" : "1.007327014075199",
        "perihelion_time" : "2458035.740513622795",
        "mean_anomaly" : "322.9417910394202",
        "mean_motion" : "1.051579706165479",
        "equinox" : "J2000"
      }
    } ]
  }
}